$$SOE
2459580.500000000, A.D. 2022-Jan-01 00:00:00.0000, 1.380194845367925E+08, -3.550521841744334E+08, 1.266606216412750E+07,
2459587.500000000, A.D. 2022-Jan-08 00:00:00.0000, 1.473174474635069E+08, -3.489445043986624E+08, 1.286323767901243E+07,
2459594.500000000, A.D. 2022-Jan-15 00:00:00.0000, 1.564840865625261E+08, -3.425256272430779E+08, 1.304893552223690E+07,
2459601.500000000, A.D. 2022-Jan-22 00:00:00.0000, 1.655087961646877E+08, -3.357959428184890E+08, 1.322278612736173E+07,
2459608.500000000, A.D. 2022-Jan-29 00:00:00.0000, 1.743807315913001E+08, -3.287561529875239E+08, 1.338441837415443E+07,
2459615.500000000, A.D. 2022-Feb-05 00:00:00.0000, 1.830888085635816E+08, -3.214072939177639E+08, 1.353346027299355E+07,
2459622.500000000, A.D. 2022-Feb-12 00:00:00.0000, 1.916217060252742E+08, -3.137507607826437E+08, 1.366953943179204E+07,
2459629.500000000, A.D. 2022-Feb-19 00:00:00.0000, 1.999678712037717E+08, -3.057883322312548E+08, 1.379228362564118E+07,
2459636.500000000, A.D. 2022-Feb-26 00:00:00.0000, 2.081155257581699E+08, -2.975221953281567E+08, 1.390132153554568E+07,
2459643.500000000, A.D. 2022-Mar-05 00:00:00.0000, 2.160526733433116E+08, -2.889549715432093E+08, 1.399628359630571E+07,
2459650.500000000, A.D. 2022-Mar-12 00:00:00.0000, 2.237671089914856E+08, -2.800897438036365E+08, 1.407680293286511E+07,
2459657.500000000, A.D. 2022-Mar-19 00:00:00.0000, 2.312464305717176E+08, -2.709300845080571E+08, 1.414251638584809E+07,
2459664.500000000, A.D. 2022-Mar-26 00:00:00.0000, 2.384780525452814E+08, -2.614800844144077E+08, 1.419306562835936E+07,
2459671.500000000, A.D. 2022-Apr-02 00:00:00.0000, 2.454492222876431E+08, -2.517443823378455E+08, 1.422809836726110E+07,
2459678.500000000, A.D. 2022-Apr-09 00:00:00.0000, 2.521470394580398E+08, -2.417281955059239E+08, 1.424726960803430E+07,
2459685.500000000, A.D. 2022-Apr-16 00:00:00.0000, 2.585584789887595E+08, -2.314373497418467E+08, 1.425024300789535E+07,
2459692.500000000, A.D. 2022-Apr-23 00:00:00.0000, 2.646704166397575E+08, -2.208783081878842E+08, 1.423669252599913E+07,
2459699.500000000, A.D. 2022-Apr-30 00:00:00.0000, 2.704696554552453E+08, -2.100582005744223E+08, 1.420630436108515E+07,
2459706.500000000, A.D. 2022-May-07 00:00:00.0000, 2.759429563822709E+08, -1.989848547264742E+08, 1.415877873493727E+07,
2459713.500000000, A.D. 2022-May-14 00:00:00.0000, 2.810770746278440E+08, -1.876668269489154E+08, 1.409383164234915E+07,
2459720.500000000, A.D. 2022-May-21 00:00:00.0000, 2.858587998916388E+08, -1.761134301736300E+08, 1.401119681465032E+07,
2459727.500000000, A.D. 2022-May-28 00:00:00.0000, 2.902750001332117E+08, -1.643347604268023E+08, 1.391062785861105E+07,
2459734.500000000, A.D. 2022-Jun-04 00:00:00.0000, 2.943126692508972E+08, -1.523417214816687E+08, 1.379190051263759E+07,
2459741.500000000, A.D. 2022-Jun-11 00:00:00.0000, 2.979589788760893E+08, -1.401460471987598E+08, 1.365481499684106E+07,
2459748.500000000, A.D. 2022-Jun-18 00:00:00.0000, 3.012013343378261E+08, -1.277603210012141E+08, 1.349919844214660E+07,
2459755.500000000, A.D. 2022-Jun-25 00:00:00.0000, 3.040274347931612E+08, -1.151979919464674E+08, 1.332490737950080E+07,
2459762.500000000, A.D. 2022-Jul-02 00:00:00.0000, 3.064253375564570E+08, -1.024733868639278E+08, 1.313183025577059E+07,
2459769.500000000, A.D. 2022-Jul-09 00:00:00.0000, 3.083835268332708E+08, -8.960171776188613E+07, 1.291988993531822E+07,
2459776.500000000, A.D. 2022-Jul-16 00:00:00.0000, 3.098909865324344E+08, -7.659908278121245E+07, 1.268904625789387E+07,
2459783.500000000, A.D. 2022-Jul-23 00:00:00.0000, 3.109372745969993E+08, -6.348245997701475E+07, 1.243929883521463E+07,
2459790.500000000, A.D. 2022-Jul-30 00:00:00.0000, 3.115125984680825E+08, -5.026969665177456E+07, 1.217068977352775E+07,
2459797.500000000, A.D. 2022-Aug-06 00:00:00.0000, 3.116078946951222E+08, -3.697949297751494E+07, 1.188330600946588E+07,
2459804.500000000, A.D. 2022-Aug-13 00:00:00.0000, 3.112149111781374E+08, -2.363137657626390E+07, 1.157728152235883E+07,
2459811.500000000, A.D. 2022-Aug-20 00:00:00.0000, 3.103262896743109E+08, -1.024566804895473E+07, 1.125279948656915E+07,
2459818.500000000, A.D. 2022-Aug-27 00:00:00.0000, 3.089356477296099E+08, 3.156562251557359E+06, 1.091009425688588E+07,
2459825.500000000, A.D. 2022-Sep-03 00:00:00.0000, 3.070376592727638E+08, 1.655354642128964E+07, 1.054945311237606E+07,
2459832.500000000, A.D. 2022-Sep-10 00:00:00.0000, 3.046281328591290E+08, 2.992288040834376E+07, 1.017121770899936E+07,
2459839.500000000, A.D. 2022-Sep-17 00:00:00.0000, 3.017040864148767E+08, 4.324159467668824E+07, 9.775785195211384E+06,
2459846.500000000, A.D. 2022-Sep-24 00:00:00.0000, 2.982638173066579E+08, 5.648623397491042E+07, 9.363608939454585E+06,
2459853.500000000, A.D. 2022-Oct-01 00:00:00.0000, 2.943069667080944E+08, 6.963294589947785E+07, 8.935198806532435E+06,
2459860.500000000, A.D. 2022-Oct-08 00:00:00.0000, 2.898345773879994E+08, 8.265757828913553E+07, 8.491120951413725E+06,
2459867.500000000, A.D. 2022-Oct-15 00:00:00.0000, 2.848491427212235E+08, 9.553578597172062E+07, 8.031997282590374E+06,
2459874.500000000, A.D. 2022-Oct-22 00:00:00.0000, 2.793546435500534E+08, 1.082431443121038E+08, 7.558504635836892E+06,
2459881.500000000, A.D. 2022-Oct-29 00:00:00.0000, 2.733565743109146E+08, 1.207552658954982E+08, 7.071373202236868E+06,
2459888.500000000, A.D. 2022-Nov-05 00:00:00.0000, 2.668619595640096E+08, 1.330479218309332E+08, 6.571384234291285E+06,
2459895.500000000, A.D. 2022-Nov-12 00:00:00.0000, 2.598793581753637E+08, 1.450971675287193E+08, 6.059367317909092E+06,
2459902.500000000, A.D. 2022-Nov-19 00:00:00.0000, 2.524188538589568E+08, 1.568794704436568E+08, 5.536197213255651E+06,
2459909.500000000, A.D. 2022-Nov-26 00:00:00.0000, 2.444920319984304E+08, 1.683718377217267E+08, 5.002790232798666E+06,
2459916.500000000, A.D. 2022-Dec-03 00:00:00.0000, 2.361119428180260E+08, 1.795519420041285E+08, 4.460100174943253E+06,
2459923.500000000, A.D. 2022-Dec-10 00:00:00.0000, 2.272930511109479E+08, 1.903982436489133E+08, 3.909113854635254E+06,
2459930.500000000, A.D. 2022-Dec-17 00:00:00.0000, 2.180511729774033E+08, 2.008901076107313E+08, 3.350846279559091E+06,
2459937.500000000, A.D. 2022-Dec-24 00:00:00.0000, 2.084034003713574E+08, 2.110079132503846E+08, 2.786335517401755E+06,
2459944.500000000, A.D. 2022-Dec-31 00:00:00.0000, 1.983680147548272E+08, 2.207331556375409E+08, 2.216637297438622E+06,
2459951.500000000, A.D. 2023-Jan-07 00:00:00.0000, 1.879643911539870E+08, 2.300485379188952E+08, 1.642819484836996E+06,
2459958.500000000, A.D. 2023-Jan-14 00:00:00.0000, 1.772128920060354E+08, 2.389380540420078E+08, 1.065956722392440E+06,
2459965.500000000, A.D. 2023-Jan-21 00:00:00.0000, 1.661347516605266E+08, 2.473870576984076E+08, 4.871251170122921E+05,
2459972.500000000, A.D. 2023-Jan-28 00:00:00.0000, 1.547519568536917E+08, 2.553823165846771E+08, -9.260330690543354E+04,
2459979.500000000, A.D. 2023-Feb-04 00:00:00.0000, 1.430871246629838E+08, 2.629120545429198E+08, -6.721660511965603E+05,
2459986.500000000, A.D. 2023-Feb-11 00:00:00.0000, 1.311633778753595E+08, 2.699659811868840E+08, -1.250515269827396E+06,
2459993.500000000, A.D. 2023-Feb-18 00:00:00.0000, 1.190042194180350E+08, 2.765353082574511E+08, -1.826622578480631E+06,
2460000.500000000, A.D. 2023-Feb-25 00:00:00.0000, 1.066334077671011E+08, 2.826127528601422E+08, -2.399483533343017E+06,
2460007.500000000, A.D. 2023-Mar-04 00:00:00.0000, 9.407483499005474E+07, 2.881925281416104E+08, -2.968121744213998E+06,
2460014.500000000, A.D. 2023-Mar-11 00:00:00.0000, 8.135240887254243E+07, 2.932703221367553E+08, -3.531592591282755E+06,
2460021.500000000, A.D. 2023-Mar-18 00:00:00.0000, 6.848994043553087E+07, 2.978432656266306E+08, -4.088986529664874E+06,
2460028.500000000, A.D. 2023-Mar-25 00:00:00.0000, 5.551103811732030E+07, 3.019098899785663E+08, -4.639431987683207E+06,
2460035.500000000, A.D. 2023-Apr-01 00:00:00.0000, 4.243900991602666E+07, 3.054700764892313E+08, -5.182097856581539E+06,
2460042.500000000, A.D. 2023-Apr-08 00:00:00.0000, 2.929677355767229E+07, 3.085249996666909E+08, -5.716195415195704E+06,
2460049.500000000, A.D. 2023-Apr-15 00:00:00.0000, 1.610677285523132E+07, 3.110770645841967E+08, -6.240979574829683E+06,
2460056.500000000, A.D. 2023-Apr-22 00:00:00.0000, 2.890902379216218E+06, 3.131298364806216E+08, -6.755749874441490E+06,
2460063.500000000, A.D. 2023-Apr-29 00:00:00.0000, -1.032955668510349E+07, 3.146879660746447E+08, -7.259851315664664E+06,
2460070.500000000, A.D. 2023-May-06 00:00:00.0000, -2.353399126234610E+07, 3.157571135226082E+08, -7.752674759006530E+06,
2460077.500000000, A.D. 2023-May-13 00:00:00.0000, -3.670250282891247E+07, 3.163438711900171E+08, -8.233656894075468E+06,
2460084.500000000, A.D. 2023-May-20 00:00:00.0000, -4.981594562271008E+07, 3.164556857280297E+08, -8.702279876769677E+06,
2460091.500000000, A.D. 2023-May-27 00:00:00.0000, -6.285595681171064E+07, 3.161007803159305E+08, -9.158070686635241E+06,
2460098.500000000, A.D. 2023-Jun-03 00:00:00.0000, -7.580497902727418E+07, 3.152880778849205E+08, -9.600600241371140E+06,
2460105.500000000, A.D. 2023-Jun-10 00:00:00.0000, -8.864627576182020E+07, 3.140271259939914E+08, -1.002948230551606E+07,
2460112.500000000, A.D. 2023-Jun-17 00:00:00.0000, -1.013639401069927E+08, 3.123280238774078E+08, -1.044437223932616E+07,
2460119.500000000, A.D. 2023-Jun-24 00:00:00.0000, -1.139428971032148E+08, 3.102013521968378E+08, -1.084496564419590E+07,
2460126.500000000, A.D. 2023-Jul-01 00:00:00.0000, -1.263689000505795E+08, 3.076581067075178E+08, -1.123099689005637E+07,
2460133.500000000, A.D. 2023-Jul-08 00:00:00.0000, -1.386285230569020E+08, 3.047096369556776E+08, -1.160223733259831E+07,
2460140.500000000, A.D. 2023-Jul-15 00:00:00.0000, -1.507091516819422E+08, 3.013675873876845E+08, -1.195849336056007E+07,
2460147.500000000, A.D. 2023-Jul-22 00:00:00.0000, -1.625989687187065E+08, 2.976438399589455E+08, -1.229960470192251E+07,
$$EOE